[{"OBJECT_NAME":"STARLINK-5306","OBJECT_ID":"2023-010C","EPOCH":"2026-03-09T08:36:13.834944","MEAN_MOTION":14.98330801,"ECCENTRICITY":0.00030221,"INCLINATION":70.0003,"RA_OF_ASC_NODE":45.3995,"ARG_OF_PERICENTER":270.3748,"MEAN_ANOMALY":89.7065,"EPHEMERIS_TYPE":0,"CLASSIFICATION_TYPE":"U","NORAD_CAT_ID":55271,"ELEMENT_SET_NO":999,"REV_AT_EPOCH":17273,"BSTAR":7.3714316e-5,"MEAN_MOTION_DOT":7.87e-6,"MEAN_MOTION_DDOT":0},{"OBJECT_NAME":"FENGYUN 1C DEB","OBJECT_ID":"1999-025DH","EPOCH":"2026-03-09T22:27:36.392832","MEAN_MOTION":14.64646374,"ECCENTRICITY":0.01796987,"INCLINATION":98.0552,"RA_OF_ASC_NODE":80.5984,"ARG_OF_PERICENTER":220.1282,"MEAN_ANOMALY":138.6535,"EPHEMERIS_TYPE":0,"CLASSIFICATION_TYPE":"U","NORAD_CAT_ID":29815,"ELEMENT_SET_NO":999,"REV_AT_EPOCH":1127,"BSTAR":0.000529441,"MEAN_MOTION_DOT":3.51e-5,"MEAN_MOTION_DDOT":0}]
